STARLINK-37305          
1 68713U 26081Q   26113.70836147 -.00467223  00000+0 -20478-2 0  9999
2 68713  53.1596 195.2121 0000861 347.1140  12.9863 15.85035004  1496
